{
  "type": "FeatureCollection",
  "features": [
    {
      "type": "Feature",
      "properties": {
        "norad_id": 31152,
        "name": "FENGYUN 1C DEB",
        "group": "fengyun-1c-debris",
        "lat": 48.7000423104601,
        "lon": -38.629604242295116,
        "alt_km": 675.8227722658085,
        "timestamp": "2025-12-10T09:57:44.979902+00:00",
        "meta_object_name": "FENGYUN 1C DEB",
        "meta_object_id": "1999-025BHE",
        "meta_epoch": "2025-12-09T11:01:02.346816",
        "meta_mean_motion": 14.35845011,
        "meta_eccentricity": 0.01303224,
        "meta_inclination": 98.414,
        "meta_ra_of_asc_node": 330.1366,
        "meta_arg_of_pericenter": 43.087,
        "meta_mean_anomaly": 107.1543,
        "meta_ephemeris_type": 0,
        "meta_classification_type": "U",
        "meta_norad_cat_id": 31152,
        "meta_element_set_no": 999,
        "meta_rev_at_epoch": 98001,
        "meta_bstar": 0.00020573727,
        "meta_mean_motion_dot": 6.11e-06,
        "meta_mean_motion_ddot": 0,
        "tle_line1": "1 31152U 99025BHE 25343.45905494  .00000611  00000+0  20574-3 0  9992",
        "tle_line2": "2 31152  98.4140 330.1366 0130322  43.0870 107.1543 14.35845011980016"
      },
      "geometry": {
        "type": "Point",
        "coordinates": [
          -38.629604242295116,
          48.7000423104601
        ]
      }
    },
    {
      "type": "Feature",
      "properties": {
        "norad_id": 31155,
        "name": "FENGYUN 1C DEB",
        "group": "fengyun-1c-debris",
        "lat": -8.17222503186043,
        "lon": -127.97255432403274,
        "alt_km": 933.462791814185,
        "timestamp": "2025-12-10T09:57:44.979912+00:00",
        "meta_object_name": "FENGYUN 1C DEB",
        "meta_object_id": "1999-025BHH",
        "meta_epoch": "2025-12-10T03:57:26.948736",
        "meta_mean_motion": 14.08309316,
        "meta_eccentricity": 0.0088941,
        "meta_inclination": 99.0422,
        "meta_ra_of_asc_node": 53.0871,
        "meta_arg_of_pericenter": 10.2968,
        "meta_mean_anomaly": 349.9996,
        "meta_ephemeris_type": 0,
        "meta_classification_type": "U",
        "meta_norad_cat_id": 31155,
        "meta_element_set_no": 999,
        "meta_rev_at_epoch": 95551,
        "meta_bstar": 0.0014367,
        "meta_mean_motion_dot": 2.503e-05,
        "meta_mean_motion_ddot": 0,
        "tle_line1": "1 31155U 99025BHH 25344.16489524  .00002503  00000+0  14367-2 0  9999",
        "tle_line2": "2 31155  99.0422  53.0871 0088941  10.2968 349.9996 14.08309316955512"
      },
      "geometry": {
        "type": "Point",
        "coordinates": [
          -127.97255432403274,
          -8.17222503186043
        ]
      }
    },
    {
      "type": "Feature",
      "properties": {
        "norad_id": 31157,
        "name": "FENGYUN 1C DEB",
        "group": "fengyun-1c-debris",
        "lat": 9.947176025746277,
        "lon": -33.482138251364084,
        "alt_km": 760.1874007309425,
        "timestamp": "2025-12-10T09:57:44.979922+00:00",
        "meta_object_name": "FENGYUN 1C DEB",
        "meta_object_id": "1999-025BHK",
        "meta_epoch": "2025-12-09T17:02:08.473056",
        "meta_mean_motion": 14.22555615,
        "meta_eccentricity": 0.0100391,
        "meta_inclination": 98.4789,
        "meta_ra_of_asc_node": 327.3382,
        "meta_arg_of_pericenter": 335.3802,
        "meta_mean_anomaly": 24.2601,
        "meta_ephemeris_type": 0,
        "meta_classification_type": "U",
        "meta_norad_cat_id": 31157,
        "meta_element_set_no": 999,
        "meta_rev_at_epoch": 96940,
        "meta_bstar": 0.00055433,
        "meta_mean_motion_dot": 1.261e-05,
        "meta_mean_motion_ddot": 0,
        "tle_line1": "1 31157U 99025BHK 25343.70982029  .00001261  00000+0  55433-3 0  9998",
        "tle_line2": "2 31157  98.4789 327.3382 0100391 335.3802  24.2601 14.22555615969409"
      },
      "geometry": {
        "type": "Point",
        "coordinates": [
          -33.482138251364084,
          9.947176025746277
        ]
      }
    },
    {
      "type": "Feature",
      "properties": {
        "norad_id": 31158,
        "name": "FENGYUN 1C DEB",
        "group": "fengyun-1c-debris",
        "lat": 81.13798301863469,
        "lon": -34.56436592106113,
        "alt_km": 751.2756603144999,
        "timestamp": "2025-12-10T09:57:44.979932+00:00",
        "meta_object_name": "FENGYUN 1C DEB",
        "meta_object_id": "1999-025BHL",
        "meta_epoch": "2025-12-09T11:45:37.421280",
        "meta_mean_motion": 14.33182755,
        "meta_eccentricity": 0.00475394,
        "meta_inclination": 98.7798,
        "meta_ra_of_asc_node": 62.0987,
        "meta_arg_of_pericenter": 44.6824,
        "meta_mean_anomaly": 315.8174,
        "meta_ephemeris_type": 0,
        "meta_classification_type": "U",
        "meta_norad_cat_id": 31158,
        "meta_element_set_no": 999,
        "meta_rev_at_epoch": 64433,
        "meta_bstar": 0.0025161115,
        "meta_mean_motion_dot": 6.96e-05,
        "meta_mean_motion_ddot": 0,
        "tle_line1": "1 31158U 99025BHL 25343.49001645  .00006960  00000+0  25161-2 0  9996",
        "tle_line2": "2 31158  98.7798  62.0987 0047539  44.6824 315.8174 14.33182755644334"
      },
      "geometry": {
        "type": "Point",
        "coordinates": [
          -34.56436592106113,
          81.13798301863469
        ]
      }
    },
    {
      "type": "Feature",
      "properties": {
        "norad_id": 31159,
        "name": "FENGYUN 1C DEB",
        "group": "fengyun-1c-debris",
        "lat": 75.53790049179426,
        "lon": -88.22537175949495,
        "alt_km": 401.227400511777,
        "timestamp": "2025-12-10T09:57:44.979942+00:00",
        "meta_object_name": "FENGYUN 1C DEB",
        "meta_object_id": "1999-025BHM",
        "meta_epoch": "2025-12-07T03:32:01.799520",
        "meta_mean_motion": 15.37177071,
        "meta_eccentricity": 0.01157472,
        "meta_inclination": 97.7995,
        "meta_ra_of_asc_node": 300.4097,
        "meta_arg_of_pericenter": 33.2484,
        "meta_mean_anomaly": 327.5962,
        "meta_ephemeris_type": 0,
        "meta_classification_type": "U",
        "meta_norad_cat_id": 31159,
        "meta_element_set_no": 999,
        "meta_rev_at_epoch": 99467,
        "meta_bstar": 0.0020820653,
        "meta_mean_motion_dot": 0.00096035,
        "meta_mean_motion_ddot": 0,
        "tle_line1": "1 31159U 99025BHM 25341.14724305  .00096035  00000+0  20821-2 0  9992",
        "tle_line2": "2 31159  97.7995 300.4097 0115747  33.2484 327.5962 15.37177071994677"
      },
      "geometry": {
        "type": "Point",
        "coordinates": [
          -88.22537175949495,
          75.53790049179426
        ]
      }
    },
    {
      "type": "Feature",
      "properties": {
        "norad_id": 31160,
        "name": "FENGYUN 1C DEB",
        "group": "fengyun-1c-debris",
        "lat": 63.65492482192234,
        "lon": -120.4327957006029,
        "alt_km": 923.7522969459587,
        "timestamp": "2025-12-10T09:57:44.979952+00:00",
        "meta_object_name": "FENGYUN 1C DEB",
        "meta_object_id": "1999-025BHN",
        "meta_epoch": "2025-12-08T09:22:15.594528",
        "meta_mean_motion": 13.99591387,
        "meta_eccentricity": 0.00565956,
        "meta_inclination": 99.0866,
        "meta_ra_of_asc_node": 38.7038,
        "meta_arg_of_pericenter": 268.242,
        "meta_mean_anomaly": 91.2261,
        "meta_ephemeris_type": 0,
        "meta_classification_type": "U",
        "meta_norad_cat_id": 31160,
        "meta_element_set_no": 999,
        "meta_rev_at_epoch": 69538,
        "meta_bstar": 0.0002209191,
        "meta_mean_motion_dot": 2.82e-06,
        "meta_mean_motion_ddot": 0,
        "tle_line1": "1 31160U 99025BHN 25342.39045827  .00000282  00000+0  22092-3 0  9999",
        "tle_line2": "2 31160  99.0866  38.7038 0056595 268.2420  91.2261 13.99591387695381"
      },
      "geometry": {
        "type": "Point",
        "coordinates": [
          -120.4327957006029,
          63.65492482192234
        ]
      }
    },
    {
      "type": "Feature",
      "properties": {
        "norad_id": 31161,
        "name": "FENGYUN 1C DEB",
        "group": "fengyun-1c-debris",
        "lat": 76.64697827814476,
        "lon": -34.38228542615079,
        "alt_km": 848.4147944604465,
        "timestamp": "2025-12-10T09:57:44.979962+00:00",
        "meta_object_name": "FENGYUN 1C DEB",
        "meta_object_id": "1999-025BHP",
        "meta_epoch": "2025-12-08T18:23:48.937632",
        "meta_mean_motion": 14.09244187,
        "meta_eccentricity": 0.00684845,
        "meta_inclination": 98.749,
        "meta_ra_of_asc_node": 4.4647,
        "meta_arg_of_pericenter": 1.4364,
        "meta_mean_anomaly": 358.6991,
        "meta_ephemeris_type": 0,
        "meta_classification_type": "U",
        "meta_norad_cat_id": 31161,
        "meta_element_set_no": 999,
        "meta_rev_at_epoch": 96046,
        "meta_bstar": 0.00059564655,
        "meta_mean_motion_dot": 1.016e-05,
        "meta_mean_motion_ddot": 0,
        "tle_line1": "1 31161U 99025BHP 25342.76653863  .00001016  00000+0  59565-3 0  9997",
        "tle_line2": "2 31161  98.7490   4.4647 0068484   1.4364 358.6991 14.09244187960460"
      },
      "geometry": {
        "type": "Point",
        "coordinates": [
          -34.38228542615079,
          76.64697827814476
        ]
      }
    }
  ]
}